[{"OBJECT_NAME":"STARLINK-6158","OBJECT_ID":"2023-061B","EPOCH":"2026-03-09T22:00:01.999584","MEAN_MOTION":15.15207628,"ECCENTRICITY":0.00022961,"INCLINATION":43.0001,"RA_OF_ASC_NODE":195.9586,"ARG_OF_PERICENTER":267.0912,"MEAN_ANOMALY":36.8876,"EPHEMERIS_TYPE":0,"CLASSIFICATION_TYPE":"U","NORAD_CAT_ID":56375,"ELEMENT_SET_NO":999,"REV_AT_EPOCH":567,"BSTAR":0.064128885,"MEAN_MOTION_DOT":0.01331927,"MEAN_MOTION_DDOT":0},{"OBJECT_NAME":"OBJECT AU","OBJECT_ID":"2024-199AU","EPOCH":"2026-03-09T22:39:39.982464","MEAN_MOTION":15.41914594,"ECCENTRICITY":0.0013813,"INCLINATION":97.3147,"RA_OF_ASC_NODE":301.0833,"ARG_OF_PERICENTER":281.8371,"MEAN_ANOMALY":78.1327,"EPHEMERIS_TYPE":0,"CLASSIFICATION_TYPE":"U","NORAD_CAT_ID":61777,"ELEMENT_SET_NO":999,"REV_AT_EPOCH":11887,"BSTAR":0.00048321732,"MEAN_MOTION_DOT":0.00020549,"MEAN_MOTION_DDOT":0}]
